     2.11           N: GPS NAV DATA                         RINEX VERSION / TYPE
teqc  2019Feb25     CORS-ADM Account    20260504 02:45:02UTCPGM / RUN BY / DATE
Linux 2.4.21-27.ELsmp|Opteron|gcc|Linux 64|=+               COMMENT
     2.10           N: GPS NAV DATA                         COMMENT
rvacn.e(1404.07)                        2026-05-04T02:27 UTCCOMMENT
This file contains the validated broadcast navigation       COMMENT
messages from the following files:                          COMMENT
aaaa1240.26n, abmf124b.26n, abpo124b.26n, albh124b.26n,     COMMENT
alic124b.26n, areq124b.26n, aruc124b.26n, baie124b.26n,     COMMENT
bake124b.26n, brew124b.26n, brst124b.26n, brux124b.26n,     COMMENT
bucu124b.26n, cebr124b.26n, chpi124b.26n, chum124b.26n,     COMMENT
chur124b.26n, ckis124b.26n, coco124b.26n, cro1124b.26n,     COMMENT
darw124b.26n, dav1124b.26n, dgar124b.26n, dlf1124b.26n,     COMMENT
drao124b.26n, dubo124b.26n, ebre124b.26n, fair124b.26n,     COMMENT
falk124b.26n, flin124b.26n, glps124b.26n, glsv124b.26n,     COMMENT
gode124b.26n, guam124b.26n, harb124b.26n, hers124b.26n,     COMMENT
hlfx124b.26n, hob2124b.26n, hofn124b.26n, holb124b.26n,     COMMENT
hrao124b.26n, iisc124b.26n, iqal124b.26n, ista124b.26n,     COMMENT
joze124b.26n, jplm124b.26n, karr124b.26n, kat1124b.26n,     COMMENT
kiri124b.26n, kiru124b.26n, kokb124b.26n, koug124b.26n,     COMMENT
kour124b.26n, lmmf124b.26n, lpal124b.26n, m0se124b.26n,     COMMENT
mac1124b.26n, maju124b.26n, mal2124b.26n, mar6124b.26n,     COMMENT
mas1124b.26n, mat1124b.26n, mate124b.26n, maw1124b.26n,     COMMENT
mcm4124b.26n, mdo1124b.26n, medi124b.26n, met3124b.26n,     COMMENT
mkea124b.26n, mobs124b.26n, mro1124b.26n, nain124b.26n,     COMMENT
nano124b.26n, naur124b.26n, nico124b.26n, nist124b.26n,     COMMENT
nklg124b.26n, nlib124b.26n, nnor124b.26n, not1124b.26n,     COMMENT
nrc1124b.26n, onsa124b.26n, orid124b.26n, palm124b.26n,     COMMENT
pert124b.26n, picl124b.26n, pie1124b.26n, pimo124b.26n,     COMMENT
pohn124b.26n, prds124b.26n, qaq1124b.26n, qiki124b.26n,     COMMENT
reso124b.26n, reun124b.26n, reyk124b.26n, riga124b.26n,     COMMENT
sant124b.26n, sask124b.26n, sch2124b.26n, scor124b.26n,     COMMENT
solo124b.26n, stj3124b.26n, stjo124b.26n, stpm124b.26n,     COMMENT
suth124b.26n, suwn124b.26n, sydn124b.26n, thtg124b.26n,     COMMENT
thu2124b.26n, tid1124b.26n, tow2124b.26n, tuva124b.26n,     COMMENT
unbj124b.26n, usud124b.26n, vacs124b.26n, vald124b.26n,     COMMENT
vill124b.26n, vis0124b.26n, warn124b.26n, whit124b.26n,     COMMENT
will124b.26n, wsrt124b.26n, wtzr124b.26n, xmis124b.26n,     COMMENT
yar2124b.26n, yarr124b.26n, yebe124b.26n, yell124b.26n,     COMMENT
zim2124b.26n, zimm124b.26n                                  COMMENT
    1.9560D-08  2.2350D-08 -1.1920D-07 -1.1920D-07          ION ALPHA
    1.2080D+05  9.8300D+04 -1.9660D+05 -6.5540D+04          ION BETA
    9.313225746150D-10 3.552713678800D-15   319488     2417 DELTA-UTC: A0,A1,T,W
                                                            END OF HEADER
25 26  5  4  2  0  0.0 4.253601655364D-04-2.842170943040D-12 0.000000000000D+00
    4.300000000000D+01 2.168750000000D+01 4.701267255223D-09-1.158480444069D+00
    1.138076186180D-06 1.286232518032D-02 9.754672646523D-06 5.153700807571D+03
    9.360000000000D+04 6.891787052155D-08-1.831892146575D-01 2.942979335785D-07
    9.476883468864D-01 1.845625000000D+02 1.159795864896D+00-8.009262189347D-09
   -6.664563320099D-10 1.000000000000D+00 2.417000000000D+03 0.000000000000D+00
    2.000000000000D+00 0.000000000000D+00 5.587935447693D-09 4.300000000000D+01
    8.641800000000D+04 4.000000000000D+00
26 26  5  4  2  0  0.0-3.611296415329D-04-4.320099833421D-12 0.000000000000D+00
    4.700000000000D+01 3.406250000000D+00 5.039852787241D-09-1.988332462988D+00
    1.769512891769D-07 1.105025468860D-02 9.201467037201D-06 5.153750699997D+03
    9.360000000000D+04 4.842877388000D-08-2.588406481748D-01-1.322478055954D-07
    9.283970758533D-01 1.846250000000D+02 7.130487027577D-01-7.982118201548D-09
   -4.993065124061D-10 1.000000000000D+00 2.417000000000D+03 0.000000000000D+00
    2.000000000000D+00 0.000000000000D+00 6.519258022308D-09 4.700000000000D+01
    8.641800000000D+04 4.000000000000D+00
27 26  5  4  2  0  0.0-1.355106942356D-04-1.716671249596D-11 0.000000000000D+00
    6.300000000000D+01 1.189062500000D+02 4.338394997280D-09 2.573197207124D+00
    6.005167961121D-06 1.435345085338D-02 6.949529051781D-06 5.153675689697D+03
    9.360000000000D+04 5.774199962616D-08 8.711394511634D-01-2.086162567139D-07
    9.519856804476D-01 2.385937500000D+02 8.959059783772D-01-7.827468902641D-09
    1.735786588193D-10 1.000000000000D+00 2.417000000000D+03 0.000000000000D+00
    2.000000000000D+00 0.000000000000D+00 2.328306436539D-09 6.300000000000D+01
    8.642300000000D+04 4.000000000000D+00
28 26  5  4  2  0  0.0-5.391240119934D-04 1.011812855722D-11 0.000000000000D+00
    3.600000000000D+01-7.031250000000D+00 4.868774232561D-09 4.024362351760D-01
   -4.786998033524D-07 4.361207829788D-04 5.267560482025D-06 5.153568738937D+03
    9.360000000000D+04-1.490116119385D-08-1.231894492139D+00-1.117587089539D-08
    9.615051063642D-01 2.780625000000D+02-4.072990933678D-01-8.053906906122D-09
   -1.410773050075D-10 1.000000000000D+00 2.417000000000D+03 0.000000000000D+00
    2.000000000000D+00 0.000000000000D+00-9.778887033463D-09 2.920000000000D+02
    8.641800000000D+04 4.000000000000D+00
29 26  5  4  2  0  0.0-3.281775861979D-04 7.275957614183D-12 0.000000000000D+00
    8.100000000000D+01 1.345937500000D+02 4.228033257413D-09 2.381631933581D+00
    7.012858986855D-06 3.543394966982D-03 6.314367055893D-06 5.153734342575D+03
    9.360000000000D+04-2.607703208923D-08 9.611359185061D-01 0.000000000000D+00
    9.611294187610D-01 2.585937500000D+02 2.777346738977D+00-7.957117160155D-09
    1.232194182976D-10 1.000000000000D+00 2.417000000000D+03 0.000000000000D+00
    2.000000000000D+00 0.000000000000D+00-9.778887033463D-09 8.100000000000D+01
    8.641800000000D+04 4.000000000000D+00
30 26  5  4  2  0  0.0 2.099410630763D-04 1.352873368887D-11 0.000000000000D+00
    8.700000000000D+01-6.468750000000D+00 5.553088451281D-09-5.807449108137D-01
   -3.743916749954D-07 8.223815122619D-03 4.850327968597D-06 5.153715677261D+03
    9.360000000000D+04-4.656612873077D-08-1.216752527838D+00 1.452863216400D-07
    9.358677113324D-01 2.703750000000D+02-2.279989664024D+00-8.535712689552D-09
   -2.007226466182D-10 1.000000000000D+00 2.417000000000D+03 0.000000000000D+00
    2.000000000000D+00 0.000000000000D+00 4.190951585770D-09 8.700000000000D+01
    8.641800000000D+04 4.000000000000D+00
31 26  5  4  2  0  0.0-1.514097675681D-04 2.387423592154D-12 0.000000000000D+00
    2.100000000000D+01-6.781250000000D+00 5.025566477873D-09-1.414362548163D+00
   -2.384185791016D-07 1.081378012896D-02 5.017966032028D-06 5.153587850571D+03
    9.360000000000D+04 2.160668373108D-07-1.182340456540D+00 8.381903171539D-08
    9.543460080676D-01 2.776875000000D+02 9.489862785276D-01-8.099623096099D-09
   -1.296482575132D-10 1.000000000000D+00 2.417000000000D+03 0.000000000000D+00
    2.000000000000D+00 0.000000000000D+00-1.350417733192D-08 2.100000000000D+01
    8.641800000000D+04 4.000000000000D+00
32 26  5  4  2  0  0.0 3.528082743287D-05 2.000888343900D-11 0.000000000000D+00
    1.070000000000D+02-1.843750000000D+01 4.349466887040D-09 3.109515449285D+00
   -9.089708328247D-07 9.395869448781D-03 8.869916200638D-06 5.153756561279D+03
    9.360000000000D+04 1.359730958939D-07-2.262800321002D+00-1.862645149231D-07
    9.684537960793D-01 2.099375000000D+02-1.978933695629D+00-7.602102372364D-09
    4.785913638228D-10 1.000000000000D+00 2.417000000000D+03 0.000000000000D+00
    2.000000000000D+00 0.000000000000D+00 9.313225746155D-10 1.070000000000D+02
    8.642400000000D+04 4.000000000000D+00
